NORAD_CAT_ID,OBJECT_NAME,OBJECT_TYPE,EPOCH,MEAN_MOTION,ECCENTRICITY,INCLINATION,RA_OF_ASC_NODE,ARG_OF_PERICENTER,MEAN_ANOMALY,BSTAR,MEAN_MOTION_DOT,MEAN_MOTION_DDOT,TLE_LINE0,TLE_LINE1,TLE_LINE2,SEMIMAJOR_AXIS,PERIOD,APOGEE,PERIGEE,DECAYED
49157.0,STARLINK-3051,PAYLOAD,2022-08-23 10:38:32,14.96706945,0.0003549999999999,69.9996,297.6662,246.1574,113.9212,2.4699000000000003e-06,-6.3e-07,0.0,0 STARLINK-3051,1 49157U 21082AD  22235.44343597 -.00000063  00000-0  24699-5 0  9997,2 49157  69.9996 297.6662 0003550 246.1574 113.9212 14.96706945 53701,6955.217,96.211,579.5509999999998,574.612,0.0
49157.0,STARLINK-3051,PAYLOAD,2022-08-23 15:27:15,14.96706227,0.0003523999999999,69.9996,297.1619,245.4128,114.6663,-6.6576e-06,-1.68e-06,0.0,0 STARLINK-3051,1 49157U 21082AD  22235.64393314 -.00000168  00000-0 -66576-5 0  9998,2 49157  69.9996 297.1619 0003524 245.4128 114.6663 14.96706227 53730,6955.219,96.211,579.535,574.633,0.0
49157.0,STARLINK-3051,PAYLOAD,2022-08-23 21:52:13,14.96701721,0.0003609,69.9996,296.4895,247.0892,112.9886,0.00015082,1.634e-05,0.0,0 STARLINK-3051,1 49157U 21082AD  22235.91126396  .00001634  00000-0  15082-3 0  9993,2 49157  69.9996 296.4895 0003609 247.0892 112.9886 14.96701721 53774,6955.233,96.212,579.6080000000002,574.5880000000002,0.0
49157.0,STARLINK-3051,PAYLOAD,2022-08-24 10:42:07,14.96703997,0.0003608,69.9995,295.1448,246.9785,113.0993,0.00013869,1.496e-05,0.0,0 STARLINK-3051,1 49157U 21082AD  22236.44592372  .00001496  00000-0  13869-3 0  9990,2 49157  69.9995 295.1448 0003608 246.9785 113.0993 14.96703997 53858,6955.226,96.211,579.6,574.581,0.0
49157.0,STARLINK-3051,PAYLOAD,2022-08-25 02:44:29,14.96721632,0.0003609,69.9996,293.4639,246.8747,113.2031,0.00029887,3.331e-05,0.0,0 STARLINK-3051,1 49157U 21082AD  22237.11423084  .00003331  00000-0  29887-3 0  9995,2 49157  69.9996 293.4639 0003609 246.8747 113.2031 14.96721632 53952,6955.170999999999,96.21,579.5459999999998,574.526,0.0
49157.0,STARLINK-3051,PAYLOAD,2022-08-25 10:45:40,14.96727164,0.0003613,69.9995,292.6237,246.8435,113.2343,0.00037289,4.18e-05,0.0,0 STARLINK-3051,1 49157U 21082AD  22237.44838858  .00004180  00000-0  37289-3 0  9998,2 49157  69.9995 292.6237 0003613 246.8435 113.2343 14.96727164 54004,6955.154,96.21,579.5319999999998,574.506,0.0
49157.0,STARLINK-3051,PAYLOAD,2022-08-25 15:34:24,14.9671765,0.0003393,69.9996,292.1193,247.4532,112.6267,0.00025437,2.821e-05,0.0,0 STARLINK-3051,1 49157U 21082AD  22237.64889385  .00002821  00000-0  25437-3 0  9993,2 49157  69.9996 292.1193 0003393 247.4532 112.6267 14.96717650 54031,6955.183000000001,96.211,579.408,574.689,0.0
49157.0,STARLINK-3051,PAYLOAD,2022-08-26 10:49:15,14.96720164,0.0003359,70.0008,290.1026,248.1964,111.8837,0.00014619,1.582e-05,0.0,0 STARLINK-3051,1 49157U 21082AD  22238.45087496  .00001582  00000-0  14619-3 0  9999,2 49157  70.0008 290.1026 0003359 248.1964 111.8837 14.96720164 54151,6955.176,96.21,579.377,574.7040000000002,0.0
49157.0,STARLINK-3051,PAYLOAD,2022-08-26 15:37:58,14.96720068,0.0003333999999999,70.0007,289.5985,248.382,111.6984,0.00012912,1.387e-05,0.0,0 STARLINK-3051,1 49157U 21082AD  22238.65137091  .00001387  00000-0  12912-3 0  9995,2 49157  70.0007 289.5985 0003334 248.3820 111.6984 14.96720068 54189,6955.176,96.21,579.36,574.722,0.0
49157.0,STARLINK-3051,PAYLOAD,2022-08-27 10:52:10,14.97363403,0.0004452,70.0018,287.5824,251.7133,108.3542,0.011132,0.00131944,0.0,0 STARLINK-3051,1 49157U 21082AD  22239.45289818  .00131944  00000-0  11132-1 0  9993,2 49157  70.0018 287.5824 0004452 251.7133 108.3542 14.97363403 54302,6953.184,96.169,578.144,571.953,0.0
49157.0,STARLINK-3051,PAYLOAD,2022-08-27 14:04:29,14.97475495,0.0005502,69.9982,287.2407,262.4378,97.6155,0.012514,0.00149144,0.0,0 STARLINK-3051,1 49157U 21082AD  22239.58645103  .00149144  00000-0  12514-1 0  9996,2 49157  69.9982 287.2407 0005502 262.4378  97.6155 14.97475495 54327,6952.837,96.162,578.5269999999998,570.876,0.0
49157.0,STARLINK-3051,PAYLOAD,2022-08-27 20:29:03,14.97747783,0.0004878,70.0001,286.5701,258.6688,101.3922,0.016327,0.00197337,0.0,0 STARLINK-3051,1 49157U 21082AD  22239.85351584  .00197337  00000-0  16327-1 0  9996,2 49157  70.0001 286.5701 0004878 258.6688 101.3922 14.97747783 54368,6951.994000000002,96.144,577.25,570.4680000000002,0.0
49157.0,STARLINK-3051,PAYLOAD,2022-08-28 04:29:53,14.97834599,0.000489,70.0001,285.7291,259.4862,100.5746,0.015083,0.00182308,0.0,0 STARLINK-3051,1 49157U 21082AD  22240.18742316  .00182308  00000-0  15083-1 0  9991,2 49157  70.0001 285.7291 0004890 259.4862 100.5746 14.97834599 54413,6951.725,96.139,576.99,570.191,0.0
49157.0,STARLINK-3051,PAYLOAD,2022-08-28 09:18:21,14.97888599,0.0004994,70.0,285.2244,259.6195,100.4401,0.014173,0.00171271,0.0,0 STARLINK-3051,1 49157U 21082AD  22240.38774843  .00171271  00000-0  14173-1 0  9999,2 49157  70.0000 285.2244 0004994 259.6195 100.4401 14.97888599 54440,6951.558000000001,96.135,576.895,569.952,0.0
49157.0,STARLINK-3051,PAYLOAD,2022-08-28 12:30:39,14.97928404,0.0005241,69.9999,284.8886,257.5245,102.5328,0.013609,0.00164463,0.0,0 STARLINK-3051,1 49157U 21082AD  22240.52129038  .00164463  00000-0  13609-1 0  9993,2 49157  69.9999 284.8886 0005241 257.5245 102.5328 14.97928404 54463,6951.435,96.133,576.943,569.6569999999998,0.0
49157.0,STARLINK-3051,PAYLOAD,2022-08-28 18:55:14,14.98000525,0.0005105,69.9999,284.2159,258.1672,101.8915,0.012325,0.0014888,0.0,0 STARLINK-3051,1 49157U 21082AD  22240.78836677  .00148880  00000-0  12325-1 0  9994,2 49157  69.9999 284.2159 0005105 258.1672 101.8915 14.98000525 54505,6951.212,96.128,576.626,569.528,0.0
49157.0,STARLINK-3051,PAYLOAD,2022-08-29 02:55:52,14.98201761,0.0005713999999999,70.0007,283.3744,267.4325,92.618,0.0074507,0.00089674,0.0,0 STARLINK-3051,1 49157U 21082AD  22241.12213108  .00089674  00000-0  74507-2 0  9997,2 49157  70.0007 283.3744 0005714 267.4325  92.6180 14.98201761 54553,6950.589,96.115,576.4259999999998,568.4830000000002,0.0
49157.0,STARLINK-3051,PAYLOAD,2022-08-29 12:32:38,14.98278634,0.0005978,70.0,282.3643,259.6518,100.3967,0.0036731,0.00043962,0.0,0 STARLINK-3051,1 49157U 21082AD  22241.52266223  .00043962  00000-0  36731-2 0  9994,2 49157  70.0000 282.3643 0005978 259.6518 100.3967 14.98278634 54612,6950.352,96.11,576.372,568.062,0.0
49157.0,STARLINK-3051,PAYLOAD,2022-08-30 04:33:55,14.98339783,0.0006253999999999,69.9998,280.6806,262.5611,97.4838,0.00012867,1.443e-05,0.0,0 STARLINK-3051,1 49157U 21082AD  22242.19022289  .00001443  00000-0  12867-3 0  9993,2 49157  69.9998 280.6806 0006254 262.5611  97.4838 14.98339783 54719,6950.163000000001,96.106,576.374,567.681,0.0
49157.0,STARLINK-3051,PAYLOAD,2022-08-30 12:34:35,14.98337008,0.0006362,69.9996,279.8385,262.9668,97.0768,0.0004232,4.962e-05,0.0,0 STARLINK-3051,1 49157U 21082AD  22242.52402458  .00004962  00000-0  42320-3 0  9996,2 49157  69.9996 279.8385 0006362 262.9668  97.0768 14.98337008 54766,6950.170999999999,96.107,576.4580000000002,567.615,0.0
49157.0,STARLINK-3051,PAYLOAD,2022-08-31 11:00:29,14.98319778,0.0006092,69.9991,277.4822,259.4208,100.6265,0.00025636,2.967e-05,0.0,0 STARLINK-3051,1 49157U 21082AD  22243.45867283  .00002967  00000-0  25636-3 0  9994,2 49157  69.9991 277.4822 0006092 259.4208 100.6265 14.98319778 54905,6950.225,96.108,576.3240000000002,567.855,0.0
49157.0,STARLINK-3051,PAYLOAD,2022-09-01 09:26:22,14.98327096,0.0006192999999999,69.9984,275.1253,261.2668,98.779,-2.7068e-05,-4.17e-06,0.0,0 STARLINK-3051,1 49157U 21082AD  22244.39331342 -.00000417  00000-0 -27068-4 0  9992,2 49157  69.9984 275.1253 0006193 261.2668  98.7790 14.98327096 55041,6950.2019999999975,96.107,576.371,567.763,0.0
49157.0,STARLINK-3051,PAYLOAD,2022-09-01 19:03:10,14.98325964,0.0006186,69.9983,274.1153,261.1255,98.9204,-8.4353e-06,-1.94e-06,0.0,0 STARLINK-3051,1 49157U 21082AD  22244.79387483 -.00000194  00000-0 -84353-5 0  9996,2 49157  69.9983 274.1153 0006186 261.1255  98.9204 14.98325964 55102,6950.205,96.107,576.37,567.771,0.0
49157.0,STARLINK-3051,PAYLOAD,2022-09-02 12:40:39,14.98323763,0.0006114,69.9984,272.2637,260.1215,99.9254,0.00013009,1.459e-05,0.0,0 STARLINK-3051,1 49157U 21082AD  22245.52823885  .00001459  00000-0  13009-3 0  9990,2 49157  69.9984 272.2637 0006114 260.1215  99.9254 14.98323763 55218,6950.212,96.107,576.327,567.828,0.0
49157.0,STARLINK-3051,PAYLOAD,2022-09-02 19:05:12,14.98322498,0.0006123999999999,69.9983,271.5904,260.0818,99.965,9.7999e-05,1.076e-05,0.0,0 STARLINK-3051,1 49157U 21082AD  22245.79528038  .00001076  00000-0  97999-4 0  9997,2 49157  69.9983 271.5904 0006124 260.0818  99.9650 14.98322498 55253,6950.215999999999,96.107,576.337,567.825,0.0
49157.0,STARLINK-3051,PAYLOAD,2022-09-03 04:42:00,14.98327319,0.0006144,69.9982,270.5804,259.7254,100.3212,0.0001375,1.548e-05,0.0,0 STARLINK-3051,1 49157U 21082AD  22246.19584029  .00001548  00000-0  13750-3 0  9990,2 49157  69.9982 270.5804 0006144 259.7254 100.3212 14.98327319 55316,6950.201,96.107,576.336,567.7959999999998,0.0
49157.0,STARLINK-3051,PAYLOAD,2022-09-03 11:06:32,14.98328196,0.000614,69.9983,269.907,259.5602,100.4866,0.00013999,1.578e-05,0.0,0 STARLINK-3051,1 49157U 21082AD  22246.46288070  .00001578  00000-0  13999-3 0  9995,2 49157  69.9983 269.9070 0006140 259.5602 100.4866 14.98328196 55359,6950.198,96.107,576.331,567.7959999999998,0.0
49157.0,STARLINK-3051,PAYLOAD,2022-09-03 14:18:49,14.98328676,0.000615,69.9982,269.5703,259.5046,100.542,0.00013935,1.57e-05,0.0,0 STARLINK-3051,1 49157U 21082AD  22246.59640078  .00001570  00000-0  13935-3 0  9991,2 49157  69.9982 269.5703 0006150 259.5046 100.5420 14.98328676 55372,6950.196999999999,96.107,576.336,567.788,0.0
49157.0,STARLINK-3051,PAYLOAD,2022-09-04 09:32:25,14.98325978,0.0005986,69.9983,267.5502,257.921,102.1278,0.00023751,2.742e-05,0.0,0 STARLINK-3051,1 49157U 21082AD  22247.39752157  .00002742  00000-0  23751-3 0  9991,2 49157  69.9983 267.5502 0005986 257.9210 102.1278 14.98325978 55493,6950.205,96.107,576.231,567.91,0.0
